{
  "type": "FeatureCollection",
  "features": [
    {
      "type": "Feature",
      "properties": {
        "norad_id": 25590,
        "name": "COSMOS 2361",
        "group": "musson",
        "lat": 31.469229074494162,
        "lon": 151.7871079916395,
        "alt_km": 984.7416764859145,
        "timestamp": "2025-12-23T11:34:48.434042+00:00",
        "meta_object_name": "COSMOS 2361",
        "meta_object_id": "1998-076A",
        "meta_epoch": "2025-12-23T00:40:02.232768",
        "meta_mean_motion": 13.73218643,
        "meta_eccentricity": 0.0030242,
        "meta_inclination": 82.9343,
        "meta_ra_of_asc_node": 336.4768,
        "meta_arg_of_pericenter": 235.8106,
        "meta_mean_anomaly": 186.1123,
        "meta_ephemeris_type": 0,
        "meta_classification_type": "U",
        "meta_norad_cat_id": 25590,
        "meta_element_set_no": 999,
        "meta_rev_at_epoch": 35252,
        "meta_bstar": 4.3075e-05,
        "meta_mean_motion_dot": 5.5e-07,
        "meta_mean_motion_ddot": 0,
        "tle_line1": "1 25590U 98076A   25357.02780362  .00000055  00000+0  43075-4 0  9993",
        "tle_line2": "2 25590  82.9343 336.4768 0030242 235.8106 186.1123 13.73218643352522"
      },
      "geometry": {
        "type": "Point",
        "coordinates": [
          151.7871079916395,
          31.469229074494162
        ]
      }
    },
    {
      "type": "Feature",
      "properties": {
        "norad_id": 26818,
        "name": "COSMOS 2378",
        "group": "musson",
        "lat": -75.44682964702554,
        "lon": -159.67149075226646,
        "alt_km": 988.8120844094601,
        "timestamp": "2025-12-23T11:34:48.434061+00:00",
        "meta_object_name": "COSMOS 2378",
        "meta_object_id": "2001-023A",
        "meta_epoch": "2025-12-23T01:54:20.928096",
        "meta_mean_motion": 13.74142797,
        "meta_eccentricity": 0.0033044,
        "meta_inclination": 82.9271,
        "meta_ra_of_asc_node": 352.0575,
        "meta_arg_of_pericenter": 175.8748,
        "meta_mean_anomaly": 248.0135,
        "meta_ephemeris_type": 0,
        "meta_classification_type": "U",
        "meta_norad_cat_id": 26818,
        "meta_element_set_no": 999,
        "meta_rev_at_epoch": 23065,
        "meta_bstar": 2.667e-05,
        "meta_mean_motion_dot": 4e-07,
        "meta_mean_motion_ddot": 0,
        "tle_line1": "1 26818U 01023A   25357.07940889  .00000040  00000+0  26670-4 0  9996",
        "tle_line2": "2 26818  82.9271 352.0575 0033044 175.8748 248.0135 13.74142797230651"
      },
      "geometry": {
        "type": "Point",
        "coordinates": [
          -159.67149075226646,
          -75.44682964702554
        ]
      }
    },
    {
      "type": "Feature",
      "properties": {
        "norad_id": 27436,
        "name": "COSMOS 2389",
        "group": "musson",
        "lat": 36.222988243626524,
        "lon": 113.83249789126049,
        "alt_km": 991.3970594827069,
        "timestamp": "2025-12-23T11:34:48.434072+00:00",
        "meta_object_name": "COSMOS 2389",
        "meta_object_id": "2002-026A",
        "meta_epoch": "2025-12-23T02:12:35.088192",
        "meta_mean_motion": 13.75155716,
        "meta_eccentricity": 0.004719,
        "meta_inclination": 82.9512,
        "meta_ra_of_asc_node": 299.3212,
        "meta_arg_of_pericenter": 32.5099,
        "meta_mean_anomaly": 338.5882,
        "meta_ephemeris_type": 0,
        "meta_classification_type": "U",
        "meta_norad_cat_id": 27436,
        "meta_element_set_no": 999,
        "meta_rev_at_epoch": 18291,
        "meta_bstar": 5.6166e-05,
        "meta_mean_motion_dot": 7e-07,
        "meta_mean_motion_ddot": 0,
        "tle_line1": "1 27436U 02026A   25357.09207278  .00000070  00000+0  56166-4 0  9993",
        "tle_line2": "2 27436  82.9512 299.3212 0047190  32.5099 338.5882 13.75155716182917"
      },
      "geometry": {
        "type": "Point",
        "coordinates": [
          113.83249789126049,
          36.222988243626524
        ]
      }
    },
    {
      "type": "Feature",
      "properties": {
        "norad_id": 27818,
        "name": "COSMOS 2398",
        "group": "musson",
        "lat": -11.804011596451684,
        "lon": -96.69999140972136,
        "alt_km": 997.2939779686194,
        "timestamp": "2025-12-23T11:34:48.434082+00:00",
        "meta_object_name": "COSMOS 2398",
        "meta_object_id": "2003-023A",
        "meta_epoch": "2025-12-22T20:12:13.116672",
        "meta_mean_motion": 13.72386809,
        "meta_eccentricity": 0.00327146,
        "meta_inclination": 82.9483,
        "meta_ra_of_asc_node": 265.2543,
        "meta_arg_of_pericenter": 84.891,
        "meta_mean_anomaly": 340.111,
        "meta_ephemeris_type": 0,
        "meta_classification_type": "U",
        "meta_norad_cat_id": 27818,
        "meta_element_set_no": 999,
        "meta_rev_at_epoch": 12955,
        "meta_bstar": 7.3840228e-05,
        "meta_mean_motion_dot": 8.3e-07,
        "meta_mean_motion_ddot": 0,
        "tle_line1": "1 27818U 03023A   25356.84181848  .00000083  00000+0  73840-4 0  9993",
        "tle_line2": "2 27818  82.9483 265.2543 0032714  84.8910 340.1110 13.72386809129555"
      },
      "geometry": {
        "type": "Point",
        "coordinates": [
          -96.69999140972136,
          -11.804011596451684
        ]
      }
    },
    {
      "type": "Feature",
      "properties": {
        "norad_id": 28380,
        "name": "COSMOS 2407",
        "group": "musson",
        "lat": -24.235568487216778,
        "lon": -158.25034069725513,
        "alt_km": 963.4725563854927,
        "timestamp": "2025-12-23T11:34:48.434092+00:00",
        "meta_object_name": "COSMOS 2407",
        "meta_object_id": "2004-028A",
        "meta_epoch": "2025-12-23T02:02:35.797920",
        "meta_mean_motion": 13.76314804,
        "meta_eccentricity": 0.0039844,
        "meta_inclination": 82.9596,
        "meta_ra_of_asc_node": 205.2329,
        "meta_arg_of_pericenter": 26.5976,
        "meta_mean_anomaly": 141.6851,
        "meta_ephemeris_type": 0,
        "meta_classification_type": "U",
        "meta_norad_cat_id": 28380,
        "meta_element_set_no": 999,
        "meta_rev_at_epoch": 7565,
        "meta_bstar": 4.0318e-05,
        "meta_mean_motion_dot": 5.5e-07,
        "meta_mean_motion_ddot": 0,
        "tle_line1": "1 28380U 04028A   25357.08513655  .00000055  00000+0  40318-4 0  9999",
        "tle_line2": "2 28380  82.9596 205.2329 0039844  26.5976 141.6851 13.76314804 75654"
      },
      "geometry": {
        "type": "Point",
        "coordinates": [
          -158.25034069725513,
          -24.235568487216778
        ]
      }
    },
    {
      "type": "Feature",
      "properties": {
        "norad_id": 28521,
        "name": "COSMOS 2414",
        "group": "musson",
        "lat": -33.00618310240465,
        "lon": 171.92498430190327,
        "alt_km": 966.2076329056872,
        "timestamp": "2025-12-23T11:34:48.434101+00:00",
        "meta_object_name": "COSMOS 2414",
        "meta_object_id": "2005-002A",
        "meta_epoch": "2025-12-22T20:10:08.449248",
        "meta_mean_motion": 13.87904286,
        "meta_eccentricity": 0.00413602,
        "meta_inclination": 82.9488,
        "meta_ra_of_asc_node": 177.0219,
        "meta_arg_of_pericenter": 111.6486,
        "meta_mean_anomaly": 248.9091,
        "meta_ephemeris_type": 0,
        "meta_classification_type": "U",
        "meta_norad_cat_id": 28521,
        "meta_element_set_no": 999,
        "meta_rev_at_epoch": 5935,
        "meta_bstar": 4.2903828e-05,
        "meta_mean_motion_dot": 6.8e-07,
        "meta_mean_motion_ddot": 0,
        "tle_line1": "1 28521U 05002A   25356.84037557  .00000068  00000+0  42904-4 0  9991",
        "tle_line2": "2 28521  82.9488 177.0219 0041360 111.6486 248.9091 13.87904286 59350"
      },
      "geometry": {
        "type": "Point",
        "coordinates": [
          171.92498430190327,
          -33.00618310240465
        ]
      }
    },
    {
      "type": "Feature",
      "properties": {
        "norad_id": 32052,
        "name": "COSMOS 2429",
        "group": "musson",
        "lat": -31.623843035358604,
        "lon": -28.96175689351829,
        "alt_km": 965.3267661022264,
        "timestamp": "2025-12-23T11:34:48.434112+00:00",
        "meta_object_name": "COSMOS 2429",
        "meta_object_id": "2007-038A",
        "meta_epoch": "2025-12-22T16:31:30.511776",
        "meta_mean_motion": 13.75150343,
        "meta_eccentricity": 0.00386621,
        "meta_inclination": 82.9807,
        "meta_ra_of_asc_node": 335.9742,
        "meta_arg_of_pericenter": 10.5262,
        "meta_mean_anomaly": 349.6695,
        "meta_ephemeris_type": 0,
        "meta_classification_type": "U",
        "meta_norad_cat_id": 32052,
        "meta_element_set_no": 999,
        "meta_rev_at_epoch": 91739,
        "meta_bstar": 3.7979129e-05,
        "meta_mean_motion_dot": 5.2e-07,
        "meta_mean_motion_ddot": 0,
        "tle_line1": "1 32052U 07038A   25356.68854759  .00000052  00000+0  37979-4 0  9998",
        "tle_line2": "2 32052  82.9807 335.9742 0038662  10.5262 349.6695 13.75150343917395"
      },
      "geometry": {
        "type": "Point",
        "coordinates": [
          -28.96175689351829,
          -31.623843035358604
        ]
      }
    },
    {
      "type": "Feature",
      "properties": {
        "norad_id": 35635,
        "name": "COSMOS 2454",
        "group": "musson",
        "lat": 80.93121657745792,
        "lon": -70.27320006126403,
        "alt_km": 912.1990447109574,
        "timestamp": "2025-12-23T11:34:48.434127+00:00",
        "meta_object_name": "COSMOS 2454",
        "meta_object_id": "2009-039A",
        "meta_epoch": "2025-12-22T21:49:44.368320",
        "meta_mean_motion": 13.89929927,
        "meta_eccentricity": 0.002012,
        "meta_inclination": 82.9556,
        "meta_ra_of_asc_node": 160.9355,
        "meta_arg_of_pericenter": 46.3695,
        "meta_mean_anomaly": 63.8353,
        "meta_ephemeris_type": 0,
        "meta_classification_type": "U",
        "meta_norad_cat_id": 35635,
        "meta_element_set_no": 999,
        "meta_rev_at_epoch": 83291,
        "meta_bstar": 5.0865e-05,
        "meta_mean_motion_dot": 7.9e-07,
        "meta_mean_motion_ddot": 0,
        "tle_line1": "1 35635U 09039A   25356.90954130  .00000079  00000+0  50865-4 0  9998",
        "tle_line2": "2 35635  82.9556 160.9355 0020120  46.3695  63.8353 13.89929927832916"
      },
      "geometry": {
        "type": "Point",
        "coordinates": [
          -70.27320006126403,
          80.93121657745792
        ]
      }
    },
    {
      "type": "Feature",
      "properties": {
        "norad_id": 36519,
        "name": "COSMOS 2463",
        "group": "musson",
        "lat": 30.278140975668276,
        "lon": -165.3190892441594,
        "alt_km": 999.7703396778161,
        "timestamp": "2025-12-23T11:34:48.434144+00:00",
        "meta_object_name": "COSMOS 2463",
        "meta_object_id": "2010-017A",
        "meta_epoch": "2025-12-23T04:10:52.501728",
        "meta_mean_motion": 13.71650047,
        "meta_eccentricity": 0.0034773,
        "meta_inclination": 82.9604,
        "meta_ra_of_asc_node": 19.0443,
        "meta_arg_of_pericenter": 258.0168,
        "meta_mean_anomaly": 170.2922,
        "meta_ephemeris_type": 0,
        "meta_classification_type": "U",
        "meta_norad_cat_id": 36519,
        "meta_element_set_no": 999,
        "meta_rev_at_epoch": 78380,
        "meta_bstar": 3.4461e-05,
        "meta_mean_motion_dot": 4.6e-07,
        "meta_mean_motion_ddot": 0,
        "tle_line1": "1 36519U 10017A   25357.17421877  .00000046  00000+0  34461-4 0  9993",
        "tle_line2": "2 36519  82.9604  19.0443 0034773 258.0168 170.2922 13.71650047783803"
      },
      "geometry": {
        "type": "Point",
        "coordinates": [
          -165.3190892441594,
          30.278140975668276
        ]
      }
    }
  ]
}